{
  "type": "FeatureCollection",
  "features": [
    {
      "type": "Feature",
      "properties": {
        "norad_id": 59626,
        "name": "LEGION 2",
        "group": "resource",
        "lat": -58.31003430000011,
        "lon": -135.73155240525523,
        "alt_km": 522.7478157821506,
        "timestamp": "2025-12-07T20:38:13.735390+00:00",
        "meta_object_name": "LEGION 2",
        "meta_object_id": "2024-081B",
        "meta_epoch": "2025-12-07T06:54:57.847392",
        "meta_mean_motion": 15.16411233,
        "meta_eccentricity": 0.00059801,
        "meta_inclination": 97.5222,
        "meta_ra_of_asc_node": 56.0605,
        "meta_arg_of_pericenter": 316.1479,
        "meta_mean_anomaly": 43.9279,
        "meta_ephemeris_type": 0,
        "meta_classification_type": "U",
        "meta_norad_cat_id": 59626,
        "meta_element_set_no": 999,
        "meta_rev_at_epoch": 8845,
        "meta_bstar": 0.0004251226,
        "meta_mean_motion_dot": 8.2e-05,
        "meta_mean_motion_ddot": 0,
        "tle_line1": "1 59626U 24081B   25341.28816953  .00008200  00000+0  42512-3 0  9996",
        "tle_line2": "2 59626  97.5222  56.0605 0005980 316.1479  43.9279 15.16411233 88458"
      },
      "geometry": {
        "type": "Point",
        "coordinates": [
          -135.73155240525523,
          -58.31003430000011
        ]
      }
    },
    {
      "type": "Feature",
      "properties": {
        "norad_id": 60182,
        "name": "ALOS-4 (DAICHI-4)",
        "group": "resource",
        "lat": -4.957156520693119,
        "lon": -103.91540557351821,
        "alt_km": 634.5636121256784,
        "timestamp": "2025-12-07T20:38:13.735400+00:00",
        "meta_object_name": "ALOS-4 (DAICHI-4)",
        "meta_object_id": "2024-123A",
        "meta_epoch": "2025-12-07T06:49:07.355424",
        "meta_mean_motion": 14.79468397,
        "meta_eccentricity": 0.00013754,
        "meta_inclination": 97.9231,
        "meta_ra_of_asc_node": 76.2092,
        "meta_arg_of_pericenter": 100.7556,
        "meta_mean_anomaly": 259.3811,
        "meta_ephemeris_type": 0,
        "meta_classification_type": "U",
        "meta_norad_cat_id": 60182,
        "meta_element_set_no": 999,
        "meta_rev_at_epoch": 7750,
        "meta_bstar": 0.00053804766,
        "meta_mean_motion_dot": 3.969e-05,
        "meta_mean_motion_ddot": 0,
        "tle_line1": "1 60182U 24123A   25341.28411291  .00003969  00000+0  53805-3 0  9992",
        "tle_line2": "2 60182  97.9231  76.2092 0001375 100.7556 259.3811 14.79468397 77502"
      },
      "geometry": {
        "type": "Point",
        "coordinates": [
          -103.91540557351821,
          -4.957156520693119
        ]
      }
    },
    {
      "type": "Feature",
      "properties": {
        "norad_id": 60452,
        "name": "LEGION 3",
        "group": "resource",
        "lat": -43.28233265364759,
        "lon": -133.26342213206257,
        "alt_km": 521.4847931338372,
        "timestamp": "2025-12-07T20:38:13.735411+00:00",
        "meta_object_name": "LEGION 3",
        "meta_object_id": "2024-146A",
        "meta_epoch": "2025-12-07T06:51:34.902432",
        "meta_mean_motion": 15.1567533,
        "meta_eccentricity": 0.00142465,
        "meta_inclination": 45.0028,
        "meta_ra_of_asc_node": 339.3681,
        "meta_arg_of_pericenter": 168.6251,
        "meta_mean_anomaly": 191.4952,
        "meta_ephemeris_type": 0,
        "meta_classification_type": "U",
        "meta_norad_cat_id": 60452,
        "meta_element_set_no": 999,
        "meta_rev_at_epoch": 7290,
        "meta_bstar": 0.00043530855,
        "meta_mean_motion_dot": 8.189e-05,
        "meta_mean_motion_ddot": 0,
        "tle_line1": "1 60452U 24146A   25341.28582063  .00008189  00000+0  43531-3 0  9997",
        "tle_line2": "2 60452  45.0028 339.3681 0014246 168.6251 191.4952 15.15675330 72902"
      },
      "geometry": {
        "type": "Point",
        "coordinates": [
          -133.26342213206257,
          -43.28233265364759
        ]
      }
    },
    {
      "type": "Feature",
      "properties": {
        "norad_id": 60453,
        "name": "LEGION 4",
        "group": "resource",
        "lat": -42.1049374932353,
        "lon": -47.401900301515866,
        "alt_km": 516.6522953656076,
        "timestamp": "2025-12-07T20:38:13.735421+00:00",
        "meta_object_name": "LEGION 4",
        "meta_object_id": "2024-146B",
        "meta_epoch": "2025-12-07T06:52:41.932416",
        "meta_mean_motion": 15.15739143,
        "meta_eccentricity": 0.00098997,
        "meta_inclination": 45.039,
        "meta_ra_of_asc_node": 71.0991,
        "meta_arg_of_pericenter": 282.4807,
        "meta_mean_anomaly": 77.4964,
        "meta_ephemeris_type": 0,
        "meta_classification_type": "U",
        "meta_norad_cat_id": 60453,
        "meta_element_set_no": 999,
        "meta_rev_at_epoch": 7175,
        "meta_bstar": 0.00044031162,
        "meta_mean_motion_dot": 8.291e-05,
        "meta_mean_motion_ddot": 0,
        "tle_line1": "1 60453U 24146B   25341.28659644  .00008291  00000+0  44031-3 0  9998",
        "tle_line2": "2 60453  45.0390  71.0991 0009899 282.4807  77.4964 15.15739143 71750"
      },
      "geometry": {
        "type": "Point",
        "coordinates": [
          -47.401900301515866,
          -42.1049374932353
        ]
      }
    },
    {
      "type": "Feature",
      "properties": {
        "norad_id": 60989,
        "name": "SENTINEL-2C",
        "group": "resource",
        "lat": 78.3172114781453,
        "lon": 7.596058362805892,
        "alt_km": 780.871362398927,
        "timestamp": "2025-12-07T20:38:13.735431+00:00",
        "meta_object_name": "SENTINEL-2C",
        "meta_object_id": "2024-157A",
        "meta_epoch": "2025-12-07T03:28:19.104384",
        "meta_mean_motion": 14.30814111,
        "meta_eccentricity": 0.00011586,
        "meta_inclination": 98.5687,
        "meta_ra_of_asc_node": 53.7075,
        "meta_arg_of_pericenter": 98.7823,
        "meta_mean_anomaly": 261.3491,
        "meta_ephemeris_type": 0,
        "meta_classification_type": "U",
        "meta_norad_cat_id": 60989,
        "meta_element_set_no": 999,
        "meta_rev_at_epoch": 6552,
        "meta_bstar": 0.00013332122,
        "meta_mean_motion_dot": 3.06e-06,
        "meta_mean_motion_ddot": 0,
        "tle_line1": "1 60989U 24157A   25341.14466556  .00000306  00000+0  13332-3 0  9996",
        "tle_line2": "2 60989  98.5687  53.7075 0001158  98.7823 261.3491 14.30814111 65524"
      },
      "geometry": {
        "type": "Point",
        "coordinates": [
          7.596058362805892,
          78.3172114781453
        ]
      }
    },
    {
      "type": "Feature",
      "properties": {
        "norad_id": 61735,
        "name": "IONOSFERA-M 1",
        "group": "resource",
        "lat": 48.62995565189388,
        "lon": 41.80669251332263,
        "alt_km": 811.9674955945393,
        "timestamp": "2025-12-07T20:38:13.735441+00:00",
        "meta_object_name": "IONOSFERA-M 1",
        "meta_object_id": "2024-199A",
        "meta_epoch": "2025-12-07T06:31:22.236960",
        "meta_mean_motion": 14.22712198,
        "meta_eccentricity": 0.00012276,
        "meta_inclination": 98.7415,
        "meta_ra_of_asc_node": 211.1618,
        "meta_arg_of_pericenter": 29.7046,
        "meta_mean_anomaly": 330.4201,
        "meta_ephemeris_type": 0,
        "meta_classification_type": "U",
        "meta_norad_cat_id": 61735,
        "meta_element_set_no": 999,
        "meta_rev_at_epoch": 10041,
        "meta_bstar": 8.8357528e-05,
        "meta_mean_motion_dot": 1.54e-06,
        "meta_mean_motion_ddot": 0,
        "tle_line1": "1 61735U 24199A   25341.27178515  .00000154  00000+0  88358-4 0  9993",
        "tle_line2": "2 61735  98.7415 211.1618 0001227  29.7046 330.4201 14.22712198100414"
      },
      "geometry": {
        "type": "Point",
        "coordinates": [
          41.80669251332263,
          48.62995565189388
        ]
      }
    },
    {
      "type": "Feature",
      "properties": {
        "norad_id": 61736,
        "name": "IONOSFERA-M 2",
        "group": "resource",
        "lat": -46.243004904189974,
        "lon": -139.09572679500243,
        "alt_km": 823.9429554660574,
        "timestamp": "2025-12-07T20:38:13.735451+00:00",
        "meta_object_name": "IONOSFERA-M 2",
        "meta_object_id": "2024-199B",
        "meta_epoch": "2025-12-07T05:39:59.971392",
        "meta_mean_motion": 14.22714345,
        "meta_eccentricity": 0.00015007,
        "meta_inclination": 98.7413,
        "meta_ra_of_asc_node": 211.039,
        "meta_arg_of_pericenter": 117.1421,
        "meta_mean_anomaly": 242.991,
        "meta_ephemeris_type": 0,
        "meta_classification_type": "U",
        "meta_norad_cat_id": 61736,
        "meta_element_set_no": 999,
        "meta_rev_at_epoch": 10353,
        "meta_bstar": 9.3766315e-05,
        "meta_mean_motion_dot": 1.66e-06,
        "meta_mean_motion_ddot": 0,
        "tle_line1": "1 61736U 24199B   25341.23611078  .00000166  00000+0  93766-4 0  9998",
        "tle_line2": "2 61736  98.7413 211.0390 0001500 117.1421 242.9910 14.22714345103538"
      },
      "geometry": {
        "type": "Point",
        "coordinates": [
          -139.09572679500243,
          -46.243004904189974
        ]
      }
    }
  ]
}